[{"OBJECT_NAME":"STARLINK-30324","OBJECT_ID":"2023-122J","EPOCH":"2026-03-09T22:00:01.999584","MEAN_MOTION":15.27512326,"ECCENTRICITY":0.00012545,"INCLINATION":43.0003,"RA_OF_ASC_NODE":91.4586,"ARG_OF_PERICENTER":268.3589,"MEAN_ANOMALY":278.7593,"EPHEMERIS_TYPE":0,"CLASSIFICATION_TYPE":"U","NORAD_CAT_ID":57640,"ELEMENT_SET_NO":999,"REV_AT_EPOCH":573,"BSTAR":0.0031210232,"MEAN_MOTION_DOT":0.00086454,"MEAN_MOTION_DDOT":0},{"OBJECT_NAME":"LYNK TOWER 6","OBJECT_ID":"2024-043AB","EPOCH":"2026-03-09T21:28:38.303328","MEAN_MOTION":15.29548678,"ECCENTRICITY":0.00097492,"INCLINATION":97.5426,"RA_OF_ASC_NODE":204.1954,"ARG_OF_PERICENTER":232.0253,"MEAN_ANOMALY":128.0107,"EPHEMERIS_TYPE":0,"CLASSIFICATION_TYPE":"U","NORAD_CAT_ID":59123,"ELEMENT_SET_NO":999,"REV_AT_EPOCH":11184,"BSTAR":0.00040142146,"MEAN_MOTION_DOT":0.0001144,"MEAN_MOTION_DDOT":0}]
